INTELSAT 902 (IS-902)   
1 26900U 01039A   26196.10392074 -.00000296  00000+0  00000+0 0  9996
2 26900   6.1848  71.4397 0004234  41.2109 167.6130  1.00272694 90977
INTELSAT 904 (IS-904)   
1 27380U 02007A   26196.09281068 -.00000239  00000+0  00000+0 0  9990
2 27380   6.9875  68.8455 0005373  25.5829 200.4551  1.00270668 52040
DIRECTV 5 (TEMPO 1)     
1 27426U 02023A   26196.22209601 -.00000070  00000+0  00000+0 0  9990
2 27426   4.9473  74.9593 0003090  46.2386 141.7130  1.00271321 88402
INTELSAT 905 (IS-905)   
1 27438U 02027A   26195.74571968  .00000081  00000+0  00000+0 0  9992
2 27438   6.8205  69.4642 0003461  47.4913 306.8961  1.00271808 51635
GALAXY 3C (G-3C)        
1 27445U 02030A   26196.22821588 -.00000165  00000+0  00000+0 0  9998
2 27445   3.8041  77.6112 0001551  34.2037 168.5858  1.00270689 46773
INTELSAT 906 (IS-906)   
1 27513U 02041A   26196.19608332 -.00000001  00000+0  00000+0 0  9991
2 27513   5.8710  72.5747 0003812  24.9357 330.2770  1.00273145 87300
GALAXY 13 (HORIZONS-1)  
1 27954U 03044A   26196.20674882  .00000122  00000+0  00000+0 0  9992
2 27954   1.4892  83.5051 0002144  29.8229 104.1402  1.00271288 46852
INTELSAT 10-02          
1 28358U 04022A   26196.06919632 -.00000020  00000+0  00000+0 0  9995
2 28358   0.0542 249.1084 0000393 340.6567  87.0603  1.00272084 80830
DIRECTV 8               
1 28659U 05019A   26196.21886485  .00000000  00000+0  00000+0 0  9999
2 28659   0.0196  54.4175 0003117  72.1501 126.2549  1.00270619 77359
GALAXY 28 (G-28)        
1 28702U 05022A   26196.12398787 -.00000212  00000+0  00000+0 0  9991
2 28702   3.3681  78.5873 0002511  27.0528 204.8699  1.00272010 52258
GALAXY 16 (G-16)        
1 29236U 06023A   26195.82449098 -.00000135  00000+0  00000+0 0  9998
2 29236   0.0121  96.9841 0002528  29.1770   4.3321  1.00271035 73257
DIRECTV 9S              
1 29494U 06043A   26196.22554463 -.00000124  00000+0  00000+0 0  9992
2 29494   2.4910  80.5637 0005030  34.2980 158.2035  1.00271014 51667
GALAXY 17 (G-17)        
1 31307U 07016B   26196.11250227 -.00000217  00000+0  00000+0 0  9991
2 31307   3.0401  79.5470 0003556  33.9010 134.9920  1.00271839 70085
INTELSAT 11 (IS-11)     
1 32253U 07044B   26196.06919632 -.00000165  00000+0  00000+0 0  9991
2 32253   3.6359  78.3299 0004187 100.5358 142.1163  0.99052175 68722
HORIZONS-2              
1 32388U 07063B   26196.11475560 -.00000264  00000+0  00000+0 0  9994
2 32388   2.6720  80.2824 0003551  20.3111 159.8671  1.00269248 68091
DIRECTV 11              
1 32729U 08013A   26195.53943366 -.00000133  00000+0  00000+0 0  9993
2 32729   0.0105 271.2272 0000085 291.1536 185.0288  1.00272107 45869
GALAXY 18 (G-18)        
1 32951U 08024A   26196.21753572  .00000016  00000+0  00000+0 0  9995
2 32951   0.0162  54.9411 0002870  72.6803 120.7511  1.00271472 46133
GALAXY 19 (G-19)        
1 33376U 08045A   26195.96754302 -.00000148  00000+0  00000+0 0  9990
2 33376   0.0580 248.0049 0002337 238.7722  57.3665  1.00272724 65187
FM-5                    
1 35493U 09034A   26194.90035760 -.00000205  00000+0  00000+0 0  9998
2 35493   0.0457 259.5714 0000757  86.9227 183.2440  1.00271245 46912
INTELSAT 14 (IS-14)     
1 36097U 09064A   26196.17683823 -.00000283  00000+0  00000+0 0  9998
2 36097   0.0196 308.4733 0002208 175.1462 188.0602  1.00268614 60884
INTELSAT 15 (IS-15)     
1 36106U 09067A   26196.12317065 -.00000193  00000+0  00000+0 0  9999
2 36106   0.0163 346.9170 0002213 132.5156 303.0152  1.00268607 41503
DIRECTV 12              
1 36131U 09075A   26195.96641634 -.00000112  00000+0  00000+0 0  9990
2 36131   0.0065 109.4408 0000352 121.9560 306.6005  1.00271543 46831
INTELSAT 16 (IS-16)     
1 36397U 10006A   26196.13469125 -.00000254  00000+0  00000+0 0  9990
2 36397   0.0103  44.6729 0002339  93.1846 127.4040  1.00270025 59935
XM-5                    
1 37185U 10053A   26194.27598828 -.00000026  00000+0  00000+0 0  9991
2 37185   0.0648 265.0318 0001728 322.3275  47.9546  1.00270903 57741
INTELSAT 17 (IS-17)     
1 37238U 10065B   26196.07115462 -.00000010  00000+0  00000+0 0  9995
2 37238   0.0012 102.4458 0002607  27.5893 254.4935  1.00270644 53522
INTELSAT 28 (IS-28)     
1 37392U 11016A   26196.12303454 -.00000235  00000+0  00000+0 0  9998
2 37392   1.8763  82.2827 0003672  39.7922 183.4772  1.00272319 53566
INTELSAT 18 (IS-18)     
1 37834U 11056A   26196.09368806  .00000000  00000+0  00000+0 0  9990
2 37834   0.0189  45.6371 0001729  77.2646  23.7770  1.00269911 54095
INTELSAT 22 (IS-22)     
1 38098U 12011A   26196.07236794 -.00000068  00000+0  00000+0 0  9998
2 38098   0.0116  38.4923 0001855  84.5264 268.0542  1.00272353  7462
INTELSAT 19 (IS-19)     
1 38356U 12030A   26196.15391925 -.00000066  00000+0  00000+0 0  9991
2 38356   0.0182  52.0020 0003193  76.2850  26.1220  1.00271315 50739
INTELSAT 20 (IS-20)     
1 38740U 12043A   26196.07167462 -.00000033  00000+0  00000+0 0  9994
2 38740   0.0125  64.1346 0001216 111.7348 211.3550  1.00270777 51027
INTELSAT 21 (IS-21)     
1 38749U 12045A   26195.19052400 -.00000291  00000+0  00000+0 0  9998
2 38749   0.0563 254.8538 0001278 255.5602 152.2105  1.00263192 50796
